NORAD_CAT_ID,OBJECT_NAME,OBJECT_TYPE,EPOCH,MEAN_MOTION,ECCENTRICITY,INCLINATION,RA_OF_ASC_NODE,ARG_OF_PERICENTER,MEAN_ANOMALY,BSTAR,MEAN_MOTION_DOT,MEAN_MOTION_DDOT,TLE_LINE0,TLE_LINE1,TLE_LINE2,SEMIMAJOR_AXIS,PERIOD,APOGEE,PERIGEE,DECAYED
53292.0,STARLINK-4159,PAYLOAD,2023-10-28 18:10:05,15.08829447,0.0001649,53.2168,98.1574,84.3693,275.7487,1.3041e-05,-8.1e-07,0.0,0 STARLINK-4159,1 53292U 22086BC  23301.75700312 -.00000081  00000-0  13041-4 0  9996,2 53292  53.2168  98.1574 0001649  84.3693 275.7487 15.08829447 70752,6917.913,95.438,540.918,538.637,0.0
53292.0,STARLINK-4159,PAYLOAD,2023-10-29 03:42:23,15.08843605,0.0001425,53.2164,96.3734,80.9965,279.1188,5.8085e-05,6.37e-06,0.0,0 STARLINK-4159,1 53292U 22086BC  23302.15443328  .00000637  00000-0  58085-4 0  9995,2 53292  53.2164  96.3734 0001425  80.9965 279.1188 15.08843605 70817,6917.869,95.437,540.72,538.749,0.0
53292.0,STARLINK-4159,PAYLOAD,2023-10-29 14:50:04,15.08835966,0.0001461,53.2159,94.292,86.6597,273.4562,0.00033946,5.118e-05,0.0,0 STARLINK-4159,1 53292U 22086BC  23302.61811258  .00005118  00000-0  33946-3 0  9994,2 53292  53.2159  94.2920 0001461  86.6597 273.4562 15.08835966 71049,6917.893,95.438,540.768,538.747,0.0
53292.0,STARLINK-4159,PAYLOAD,2023-10-29 18:00:50,15.08855848,0.0001284,53.2161,93.697,86.0065,274.1074,0.0001468,2.05e-05,0.0,0 STARLINK-4159,1 53292U 22086BC  23302.75058209  .00002050  00000-0  14680-3 0  9994,2 53292  53.2161  93.6970 0001284  86.0065 274.1074 15.08855848 70908,6917.832,95.437,540.585,538.809,0.0
53292.0,STARLINK-4159,PAYLOAD,2023-10-30 09:54:42,15.08837242,0.0001471,53.2168,90.723,82.3086,277.8073,0.00018502,2.658e-05,0.0,0 STARLINK-4159,1 53292U 22086BC  23303.41299596  .00002658  00000-0  18502-3 0  9995,2 53292  53.2168  90.7230 0001471  82.3086 277.8073 15.08837242 71001,6917.889,95.438,540.771,538.736,0.0
53292.0,STARLINK-4159,PAYLOAD,2023-10-30 17:51:38,15.08836995,0.0001483,53.216,89.2342,96.0564,264.0597,7.9045e-05,9.7e-06,0.0,0 STARLINK-4159,1 53292U 22086BC  23303.74419644  .00000970  00000-0  79045-4 0  9994,2 53292  53.2160  89.2342 0001483  96.0564 264.0597 15.08836995 71212,6917.89,95.438,540.78,538.729,0.0
53292.0,STARLINK-4159,PAYLOAD,2023-10-31 12:56:16,15.08840555,0.0001432,53.2153,85.6682,86.1001,274.0155,3.4052e-05,2.54e-06,0.0,0 STARLINK-4159,1 53292U 22086BC  23304.53907599  .00000254  00000-0  34052-4 0  9997,2 53292  53.2153  85.6682 0001432  86.1001 274.0155 15.08840555 71174,6917.879,95.438,540.734,538.753,0.0
53292.0,STARLINK-4159,PAYLOAD,2023-10-31 14:31:39,15.08841727,0.000145,53.2154,85.3708,87.4717,272.6441,5.3656e-05,5.66e-06,0.0,0 STARLINK-4159,1 53292U 22086BC  23304.60531550  .00000566  00000-0  53656-4 0  9992,2 53292  53.2154  85.3708 0001450  87.4717 272.6441 15.08841727 71342,6917.875,95.437,540.743,538.737,0.0
53292.0,STARLINK-4159,PAYLOAD,2023-10-31 16:07:02,15.08843906,0.000149,53.2156,85.0723,92.4931,267.6231,7.6818e-05,9.35e-06,0.0,0 STARLINK-4159,1 53292U 22086BC  23304.67155413  .00000935  00000-0  76818-4 0  9994,2 53292  53.2156  85.0723 0001490  92.4931 267.6231 15.08843906 71359,6917.868,95.437,540.764,538.703,0.0
53292.0,STARLINK-4159,PAYLOAD,2023-11-01 14:22:26,15.08835216,0.0001442,53.2167,80.9092,99.0812,261.0344,0.00010375,1.363e-05,0.0,0 STARLINK-4159,1 53292U 22086BC  23305.59891936  .00001363  00000-0  10375-3 0  9994,2 53292  53.2167  80.9092 0001442  99.0812 261.0344 15.08835216 71495,6917.895,95.438,540.758,538.762,0.0
53292.0,STARLINK-4159,PAYLOAD,2023-11-01 15:57:49,15.08837143,0.0001453,53.2165,80.6138,90.6313,269.4845,0.00010188,1.334e-05,0.0,0 STARLINK-4159,1 53292U 22086BC  23305.66515883  .00001334  00000-0  10188-3 0  9996,2 53292  53.2165  80.6138 0001453  90.6313 269.4845 15.08837143 71349,6917.889,95.438,540.759,538.749,0.0
53292.0,STARLINK-4159,PAYLOAD,2023-11-02 14:13:13,15.0884506,0.000168,53.2176,76.452,89.0894,271.0291,9.6118e-05,1.242e-05,0.0,0 STARLINK-4159,1 53292U 22086BC  23306.59251684  .00001242  00000-0  96118-4 0  9991,2 53292  53.2176  76.4520 0001680  89.0894 271.0291 15.08845060 71641,6917.865,95.437,540.892,538.568,0.0
53292.0,STARLINK-4159,PAYLOAD,2023-11-02 15:48:36,15.08846581,0.0001618,53.2175,76.1539,90.9661,269.1516,0.00011615,1.561e-05,0.0,0 STARLINK-4159,1 53292U 22086BC  23306.65875508  .00001561  00000-0  11615-3 0  9997,2 53292  53.2175  76.1539 0001618  90.9661 269.1516 15.08846581 71659,6917.86,95.437,540.845,538.606,0.0
53292.0,STARLINK-4159,PAYLOAD,2023-11-03 01:20:55,15.08845757,0.0001346,53.2174,74.3692,92.3804,267.7343,8.5488e-05,1.073e-05,0.0,0 STARLINK-4159,1 53292U 22086BC  23307.05619501  .00001073  00000-0  85488-4 0  9999,2 53292  53.2174  74.3692 0001346  92.3804 267.7343 15.08845757 71556,6917.863,95.437,540.659,538.797,0.0
53292.0,STARLINK-4159,PAYLOAD,2023-11-03 09:17:51,15.0883762,0.0001793,53.219,72.8835,97.8337,262.2859,6.9209e-05,8.13e-06,0.0,0 STARLINK-4159,1 53292U 22086BC  23307.38740307  .00000813  00000-0  69209-4 0  9998,2 53292  53.2190  72.8835 0001793  97.8337 262.2859 15.08837620 71601,6917.888,95.438,540.993,538.512,0.0
53292.0,STARLINK-4159,PAYLOAD,2023-11-03 14:04:01,15.08837263,0.00017,53.2196,71.9922,98.5755,261.543,5.8221e-05,6.39e-06,0.0,0 STARLINK-4159,1 53292U 22086BC  23307.58612363  .00000639  00000-0  58221-4 0  9998,2 53292  53.2196  71.9922 0001700  98.5755 261.5430 15.08837263 71794,6917.889,95.438,540.93,538.578,0.0
53292.0,STARLINK-4159,PAYLOAD,2023-11-04 13:54:47,15.08843939,0.0001405,53.2169,67.528,95.589,264.5262,5.1854e-05,5.37e-06,0.0,0 STARLINK-4159,1 53292U 22086BC  23308.57972122  .00000537  00000-0  51854-4 0  9992,2 53292  53.2169  67.5280 0001405  95.5890 264.5262 15.08843939 71941,6917.868,95.437,540.705,538.761,0.0
53292.0,STARLINK-4159,PAYLOAD,2023-11-04 15:30:10,15.08846049,0.0001344,53.217,67.2317,86.515,273.5996,6.6159e-05,7.65e-06,0.0,0 STARLINK-4159,1 53292U 22086BC  23308.64596035  .00000765  00000-0  66159-4 0  9992,2 53292  53.2170  67.2317 0001344  86.5150 273.5996 15.08846049 71794,6917.862,95.437,540.657,538.797,0.0
53292.0,STARLINK-4159,PAYLOAD,2023-11-05 13:45:33,15.08862383,0.0001524,53.2164,63.0714,90.7979,269.3187,-6.4943e-05,-1.322e-05,0.0,0 STARLINK-4159,1 53292U 22086BC  23309.57330971 -.00001322  00000-0 -64943-4 0  9991,2 53292  53.2164  63.0714 0001524  90.7979 269.3187 15.08862383 72096,6917.812,95.436,540.731,538.623,0.0
53292.0,STARLINK-4159,PAYLOAD,2023-11-05 15:20:57,15.08863001,0.0001597,53.2166,62.7721,91.5283,268.5892,0.00031119,4.671e-05,0.0,0 STARLINK-4159,1 53292U 22086BC  23309.63954989  .00004671  00000-0  31119-3 0  9995,2 53292  53.2166  62.7721 0001597  91.5283 268.5892 15.08863001 71944,6917.81,95.436,540.78,538.57,0.0
53292.0,STARLINK-4159,PAYLOAD,2023-11-06 00:53:16,15.08859816,0.0001627,53.2176,60.9898,81.6275,278.4902,0.00043619,6.664e-05,0.0,0 STARLINK-4159,1 53292U 22086BC  23310.03699182  .00006664  00000-0  43619-3 0  9994,2 53292  53.2176  60.9898 0001627  81.6275 278.4902 15.08859816 72004,6917.82,95.436,540.81,538.559,0.0
53292.0,STARLINK-4159,PAYLOAD,2023-11-06 12:00:59,15.08809382,0.0002373,53.2166,58.9071,41.2006,318.9165,-0.00064855,-0.00010587,0.0,0 STARLINK-4159,1 53292U 22086BC  23310.50068989 -.00010587  00000-0 -64855-3 0  9997,2 53292  53.2166  58.9071 0002373  41.2006 318.9165 15.08809382 72077,6917.974,95.439,541.481,538.197,0.0
53292.0,STARLINK-4159,PAYLOAD,2023-11-06 13:36:23,15.08809103,0.0001276,53.2167,58.6075,79.1493,280.9642,-0.00047517,-7.836e-05,0.0,0 STARLINK-4159,1 53292U 22086BC  23310.56693398 -.00007836  00000-0 -47517-3 0  9990,2 53292  53.2167  58.6075 0001276  79.1493 280.9642 15.08809103 72248,6917.975,95.44,540.723,538.957,0.0
53292.0,STARLINK-4159,PAYLOAD,2023-11-07 11:51:47,15.08815533,0.0001434,53.2168,54.4482,66.8021,293.3122,-0.00019455,-3.381e-05,0.0,0 STARLINK-4159,1 53292U 22086BC  23311.49430425 -.00003381  00000-0 -19455-3 0  9994,2 53292  53.2168  54.4482 0001434  66.8021 293.3122 15.08815533 72224,6917.955,95.439,540.812,538.828,0.0
53292.0,STARLINK-4159,PAYLOAD,2023-11-07 13:27:10,15.08818589,0.0001507,53.2176,54.1486,90.7624,269.3541,-0.00011952,-2.188e-05,0.0,0 STARLINK-4159,1 53292U 22086BC  23311.56054373 -.00002188  00000-0 -11952-3 0  9994,2 53292  53.2176  54.1486 0001507  90.7624 269.3541 15.08818589 72390,6917.946,95.439,540.853,538.768,0.0
53292.0,STARLINK-4159,PAYLOAD,2023-11-08 00:34:53,15.0882849,0.0001529,53.219,52.0649,93.2061,266.9106,0.00023987,3.53e-05,0.0,0 STARLINK-4159,1 53292U 22086BC  23312.02422728  .00003530  00000-0  23987-3 0  9990,2 53292  53.2190  52.0649 0001529  93.2061 266.9106 15.08828490 72304,6917.916,95.438,540.838,538.723,0.0
53292.0,STARLINK-4159,PAYLOAD,2023-11-08 11:42:34,15.08847781,0.0001459,53.2193,49.9841,88.4261,271.6898,0.00072187,0.00011222,0.0,0 STARLINK-4159,1 53292U 22086BC  23312.48790380  .00011222  00000-0  72187-3 0  9995,2 53292  53.2193  49.9841 0001459  88.4261 271.6898 15.08847781 72378,6917.857,95.437,540.731,538.712,0.0
53292.0,STARLINK-4159,PAYLOAD,2023-11-08 13:17:57,15.08850696,0.0001385,53.2184,49.6874,80.1987,279.9161,0.00085327,0.00013322,0.0,0 STARLINK-4159,1 53292U 22086BC  23312.55414283  .00013322  00000-0  85327-3 0  9991,2 53292  53.2184  49.6874 0001385  80.1987 279.9161 15.08850696 72545,6917.848,95.437,540.671,538.755,0.0
53292.0,STARLINK-4159,PAYLOAD,2023-11-09 11:33:21,15.08848929,0.0001763,53.2186,45.5248,106.4004,253.7182,0.00031616,4.748e-05,0.0,0 STARLINK-4159,1 53292U 22086BC  23313.48149868  .00004748  00000-0  31616-3 0  9992,2 53292  53.2186  45.5248 0001763 106.4004 253.7182 15.08848929 72526,6917.853,95.437,540.938,538.498,0.0
53292.0,STARLINK-4159,PAYLOAD,2023-11-09 13:08:44,15.08849274,0.0001587,53.2184,45.2261,107.1732,252.9434,0.0002633,3.906e-05,0.0,0 STARLINK-4159,1 53292U 22086BC  23313.54773507  .00003906  00000-0  26330-3 0  9994,2 53292  53.2184  45.2261 0001587 107.1732 252.9434 15.08849274 72699,6917.852,95.437,540.815,538.619,0.0
